H1 CPF 01  gfz 2022 03 07 01  5661 tandemx   
H2 1003001  6202 36605    2022 03 07 00 59 42 2022 03 12 00 00 42   120 1 1  0 0 0
H9
10 0 59645   3582.000000  0    1898447.343   6385029.567  -1767859.985
10 0 59645   3702.000000  0    1986100.880   6056397.631  -2624115.008
10 0 59645   3822.000000  0    2032447.444   5621013.710  -3434303.513
10 0 59645   3942.000000  0    2034921.108   5087314.496  -4184262.895
10 0 59645   4062.000000  0    1991885.899   4465473.439  -4860919.661
10 0 59645   4182.000000  0    1902688.239   3767195.467  -5452512.033
10 0 59645   4302.000000  0    1767688.928   3005487.933  -5948786.054
10 0 59645   4422.000000  0    1588273.283   2194411.632  -6341163.299
10 0 59645   4542.000000  0    1366840.132   1348818.339  -6622876.846
10 0 59645   4662.000000  0    1106771.096    484080.476  -6789077.369
10 0 59645   4782.000000  0     812378.942   -384184.734  -6836908.221
10 0 59645   4902.000000  0     488836.429  -1240391.900  -6765548.196
10 0 59645   5022.000000  0     142087.405  -2069259.518  -6576222.517
10 0 59645   5142.000000  0    -221258.648  -2856074.623  -6272185.187
10 0 59645   5262.000000  0    -594049.059  -3586950.423  -5858670.509
10 0 59645   5382.000000  0    -968723.902  -4249069.428  -5342811.418
10 0 59645   5502.000000  0   -1337464.038  -4830909.930  -4733528.425
10 0 59645   5622.000000  0   -1692349.776  -5322452.645  -4041387.003
10 0 59645   5742.000000  0   -2025526.865  -5715362.047  -3278424.266
10 0 59645   5862.000000  0   -2329376.047  -6003138.212  -2457947.320
10 0 59645   5982.000000  0   -2596682.694  -6181236.047  -1594305.951
10 0 59645   6102.000000  0   -2820802.610  -6247148.602   -702642.139
10 0 59645   6222.000000  0   -2995819.636  -6200450.327    201379.596
10 0 59645   6342.000000  0   -3116690.248  -6042797.881   1101854.360
10 0 59645   6462.000000  0   -3179371.601  -5777889.114   1982925.338
10 0 59645   6582.000000  0   -3180929.485  -5411380.193   2829072.411
10 0 59645   6702.000000  0   -3119623.175  -4950763.466   3625393.507
10 0 59645   6822.000000  0   -2994965.156  -4405209.897   4357873.135
10 0 59645   6942.000000  0   -2807754.906  -3785379.712   5013632.521
10 0 59645   7062.000000  0   -2560086.191  -3103206.106   5581156.587
10 0 59645   7182.000000  0   -2255326.511  -2371657.907   6050493.471
10 0 59645   7302.000000  0   -1898070.840  -1604488.032   6413424.449
10 0 59645   7422.000000  0   -1494070.023   -815970.935   6663603.701
10 0 59645   7542.000000  0   -1050135.469    -20633.088   6796662.213
10 0 59645   7662.000000  0    -574024.140    767013.938   6810277.694
10 0 59645   7782.000000  0     -74303.178   1532737.494   6704213.638
10 0 59645   7902.000000  0     439804.239   2262841.010   6480323.386
10 0 59645   8022.000000  0     958588.886   2944408.990   6142519.171
10 0 59645   8142.000000  0    1472037.849   3565536.075   5696708.074
10 0 59645   8262.000000  0    1970026.829   4115538.370   5150694.593
10 0 59645   8382.000000  0    2442520.093   4585142.701   4514050.222
10 0 59645   8502.000000  0    2879773.921   4966649.120   3797949.759
10 0 59645   8622.000000  0    3272537.727   5254063.004   3014979.295
10 0 59645   8742.000000  0    3612252.271   5443198.535   2178916.973
10 0 59645   8862.000000  0    3891237.416   5531743.560   1304484.831
10 0 59645   8982.000000  0    4102862.412   5519286.648    407084.866
10 0 59645   9102.000000  0    4241697.886   5407306.479   -497481.258
10 0 59645   9222.000000  0    4303644.031   5199120.678  -1393298.747
10 0 59645   9342.000000  0    4286032.677   4899799.238  -2264627.463
10 0 59645   9462.000000  0    4187699.738   4516043.325  -3096185.386
10 0 59645   9582.000000  0    4009026.213   4056032.876  -3873421.512
10 0 59645   9702.000000  0    3751947.580   3529246.804  -4582770.656
10 0 59645   9822.000000  0    3419933.427   2946262.384  -5211886.945
10 0 59645   9942.000000  0    3017936.268   2318537.768  -5749852.537
10 0 59645  10062.000000  0    2552312.179   1658183.256  -6187357.569
10 0 59645  10182.000000  0    2030715.410    977726.121  -6516849.904
10 0 59645  10302.000000  0    1461969.978    289874.641  -6732652.829
10 0 59645  10422.000000  0     855921.206   -392714.819  -6831053.805
10 0 59645  10542.000000  0     223266.132  -1057666.367  -6810361.776
10 0 59645  10662.000000  0    -424631.272  -1693102.974  -6670931.111
10 0 59645  10782.000000  0   -1075938.355  -2287852.304  -6415156.786
10 0 59645  10902.000000  0   -1718564.928  -2831639.859  -6047438.660
10 0 59645  11022.000000  0   -2340382.313  -3315264.688  -5574113.213
10 0 59645  11142.000000  0   -2929448.187  -3730755.821  -5003356.089
10 0 59645  11262.000000  0   -3474235.638  -4071508.218  -4345053.138
10 0 59645  11382.000000  0   -3963860.116  -4332393.346  -3610639.321
10 0 59645  11502.000000  0   -4388299.797  -4509842.569  -2812909.141
10 0 59645  11622.000000  0   -4738605.315  -4601901.254  -1965799.354
10 0 59645  11742.000000  0   -5007093.066  -4608251.202  -1084147.461
10 0 59645  11862.000000  0   -5187517.055  -4530200.640   -183430.133
10 0 59645  11982.000000  0   -5275214.910  -4370641.739    720513.511
10 0 59645  12102.000000  0   -5267223.245  -4133975.495   1611769.057
10 0 59645  12222.000000  0   -5162358.272  -3826004.823   2474636.803
10 0 59645  12342.000000  0   -4961260.107  -3453799.333   3293917.019
10 0 59645  12462.000000  0   -4666400.111  -3025535.972   4055184.712
10 0 59645  12582.000000  0   -4282050.754  -2550318.939   4745049.061
10 0 59645  12702.000000  0   -3814218.638  -2037983.695   5351389.797
10 0 59645  12822.000000  0   -3270545.175  -1498891.804   5863567.721
10 0 59645  12942.000000  0   -2660176.292   -943719.954   6272608.880
10 0 59645  13062.000000  0   -1993602.007   -383246.058   6571357.655
10 0 59645  13182.000000  0   -1282470.347    171861.328   6754594.804
10 0 59645  13302.000000  0    -539381.474    711244.375   6819122.031
10 0 59645  13422.000000  0     222335.693   1225048.268   6763814.523
10 0 59645  13542.000000  0     988862.032   1704101.006   6589639.563
10 0 59645  13662.000000  0    1746138.487   2140077.485   6299640.248
10 0 59645  13782.000000  0    2480123.083   2525644.162   5898885.240
10 0 59645  13902.000000  0    3177051.797   2854583.837   5394386.420
10 0 59645  14022.000000  0    3823700.035   3121898.558   4794982.233
10 0 59645  14142.000000  0    4407636.721   3323887.932   4111187.343
10 0 59645  14262.000000  0    4917468.775   3458201.377   3355014.496
10 0 59645  14382.000000  0    5343073.035   3523864.288   2539764.186
10 0 59645  14502.000000  0    5675802.948   3521273.597   1679788.380
10 0 59645  14622.000000  0    5908669.701   3452166.454    790233.872
10 0 59645  14742.000000  0    6036492.036   3319560.654   -113232.212
10 0 59645  14862.000000  0    6056009.606   3127667.713  -1014707.242
10 0 59645  14982.000000  0    5965958.044   2881781.358  -1898341.599
10 0 59645  15102.000000  0    5767102.930   2588145.747  -2748624.318
10 0 59645  15222.000000  0    5462233.819   2253806.217  -3550660.879
10 0 59645  15342.000000  0    5056118.563   1886445.465  -4290436.553
10 0 59645  15462.000000  0    4555418.210   1494209.984  -4955061.053
10 0 59645  15582.000000  0    3968565.763   1085531.807  -5532986.654
10 0 59645  15702.000000  0    3305614.979    668950.431  -6014199.944
10 0 59645  15822.000000  0    2578060.286    252937.736  -6390385.102
10 0 59645  15942.000000  0    1798632.797   -154270.163  -6655055.478
10 0 59645  16062.000000  0     981077.844   -544831.438  -6803654.885
10 0 59645  16182.000000  0     139914.485   -911445.617  -6833628.664
10 0 59645  16302.000000  0    -709817.759  -1247485.794  -6744461.001
10 0 59645  16422.000000  0   -1552820.488  -1547114.844  -6537683.124
10 0 59645  16542.000000  0   -2373805.772  -1805384.892  -6216850.352
10 0 59645  16662.000000  0   -3157767.094  -2018317.763  -5787486.624
10 0 59645  16782.000000  0   -3890249.048  -2182966.337  -5257000.419
10 0 59645  16902.000000  0   -4557614.940  -2297455.961  -4634569.191
10 0 59645  17022.000000  0   -5147304.378  -2361003.881  -3930991.536
10 0 59645  17142.000000  0   -5648076.516  -2373916.772  -3158510.039
10 0 59645  17262.000000  0   -6050234.031  -2337565.558  -2330605.104
10 0 59645  17382.000000  0   -6345821.389  -2254337.655  -1461763.189
10 0 59645  17502.000000  0   -6528792.923  -2127567.651   -567223.084
10 0 59645  17622.000000  0   -6595145.145  -1961447.473    337295.382
10 0 59645  17742.000000  0   -6543009.891  -1760917.914   1235874.543
10 0 59645  17862.000000  0   -6372704.524  -1531544.052   2112688.183
10 0 59645  17982.000000  0   -6086737.131  -1279378.466   2952289.637
10 0 59645  18102.000000  0   -5689767.979  -1010815.113   3739891.789
10 0 59645  18222.000000  0   -5188527.222   -732437.429   4461634.822
10 0 59645  18342.000000  0   -4591690.106   -450865.400   5104832.146
10 0 59645  18462.000000  0   -3909718.166   -172605.373   5658192.043
10 0 59645  18582.000000  0   -3154667.184     96094.649   6112014.020
10 0 59645  18702.000000  0   -2339965.189    349380.663   6458354.069
10 0 59645  18822.000000  0   -1480167.380    581915.451   6691157.769
10 0 59645  18942.000000  0    -590691.993    788987.746   6806360.283
10 0 59645  19062.000000  0     312457.209    966605.698   6801952.062
10 0 59645  19182.000000  0    1212978.101   1111572.794   6678011.409
10 0 59645  19302.000000  0    2094563.514   1221545.690   6436703.302
10 0 59645  19422.000000  0    2941195.751   1295072.201   6082243.987
10 0 59645  19542.000000  0    3737439.014   1331609.212   5620832.495
10 0 59645  19662.000000  0    4468723.826   1331520.142   5060546.847
10 0 59645  19782.000000  0    5121617.745   1296052.529   4411209.695
10 0 59645  19902.000000  0    5684081.615   1227295.809   3684222.338
10 0 59645  20022.000000  0    6145701.748   1128120.281   2892365.520
99
